start=new Date('2022-07-08T00:00:00.000Z').valueOf();
sats=[{"RCS_SIZE":"LARGE","CENTER_NAME":"EARTH","MEAN_ANOMALY":"301.2164","EPOCH":"2022-07-07T20:00:53.755200","SEMIMAJOR_AXIS":"6925.358","DECAY_DATE":null,"OBJECT_TYPE":"PAYLOAD","MEAN_MOTION":"15.06396976","INCLINATION":"53.0549","NORAD_CAT_ID":"44954","COUNTRY_CODE":"US","OBJECT_NAME":"STARLINK-1066","ARG_OF_PERICENTER":"58.8989","PERIOD":"95.592","TLE_LINE2":"2 44954  53.0549 205.9533 0001677  58.8989 301.2164 15.06396976138257","TIME_SYSTEM":"UTC","FILE":"3509470","MEAN_MOTION_DDOT":"0.0000000000000","LAUNCH_DATE":"2020-01-07","ELEMENT_SET_NO":"999","REV_AT_EPOCH":"13825","ECCENTRICITY":"0.00016770","TLE_LINE1":"1 44954U 20001AS  22188.83395550  .00000902  00000-0  79483-4 0  9994","BSTAR":"0.00007948300000","RA_OF_ASC_NODE":"205.9533","CLASSIFICATION_TYPE":"U","PERIAPSIS":"546.061","MEAN_ELEMENT_THEORY":"SGP4","REF_FRAME":"TEME","SITE":"AFETR","EPHEMERIS_TYPE":"0","MEAN_MOTION_DOT":"0.00000902","GP_ID":"207627822","APOAPSIS":"548.384","OBJECT_ID":"2020-001AS"},{"TIME_SYSTEM":"UTC","MEAN_MOTION_DDOT":"0.0000000000000","FILE":"3509470","TLE_LINE2":"2 44955  53.0519 206.2217 0001953  53.9690 306.1480 15.06409589138249","OBJECT_NAME":"STARLINK-1069","PERIOD":"95.592","ARG_OF_PERICENTER":"53.9690","NORAD_CAT_ID":"44955","COUNTRY_CODE":"US","INCLINATION":"53.0519","MEAN_MOTION":"15.06409589","OBJECT_TYPE":"PAYLOAD","DECAY_DATE":null,"RCS_SIZE":"LARGE","SEMIMAJOR_AXIS":"6925.319","EPOCH":"2022-07-07T18:35:58.659936","CENTER_NAME":"EARTH","MEAN_ANOMALY":"306.1480","APOAPSIS":"548.537","MEAN_MOTION_DOT":"0.00003032","GP_ID":"207626599","OBJECT_ID":"2020-001AT","SITE":"AFETR","EPHEMERIS_TYPE":"0","REF_FRAME":"TEME","MEAN_ELEMENT_THEORY":"SGP4","CLASSIFICATION_TYPE":"U","PERIAPSIS":"545.832","RA_OF_ASC_NODE":"206.2217","ECCENTRICITY":"0.00019530","TLE_LINE1":"1 44955U 20001AT  22188.77498449  .00003032  00000-0  22229-3 0  9991","BSTAR":"0.00022229000000","LAUNCH_DATE":"2020-01-07","REV_AT_EPOCH":"13824","ELEMENT_SET_NO":"999"},{"OBJECT_TYPE":"PAYLOAD","MEAN_MOTION":"15.06393348","INCLINATION":"53.0524","MEAN_ANOMALY":"289.2851","EPOCH":"2022-07-07T18:29:19.511808","CENTER_NAME":"EARTH","SEMIMAJOR_AXIS":"6925.369","RCS_SIZE":"LARGE","DECAY_DATE":null,"TLE_LINE2":"2 44956  53.0524 206.2297 0001387  70.8288 289.2851 15.06393348138301","FILE":"3509470","MEAN_MOTION_DDOT":"0.0000000000000","TIME_SYSTEM":"UTC","COUNTRY_CODE":"US","NORAD_CAT_ID":"44956","PERIOD":"95.593","ARG_OF_PERICENTER":"70.8288","OBJECT_NAME":"STARLINK-1070","RA_OF_ASC_NODE":"206.2297","PERIAPSIS":"546.273","CLASSIFICATION_TYPE":"U","REV_AT_EPOCH":"13830","ELEMENT_SET_NO":"999","LAUNCH_DATE":"2020-01-07","BSTAR":"0.00008452000000","TLE_LINE1":"1 44956U 20001AU  22188.77036472  .00000977  00000-0  84520-4 0  9994","ECCENTRICITY":"0.00013870","EPHEMERIS_TYPE":"0","SITE":"AFETR","OBJECT_ID":"2020-001AU","GP_ID":"207626849","MEAN_MOTION_DOT":"0.00000977","APOAPSIS":"548.194","MEAN_ELEMENT_THEORY":"SGP4","REF_FRAME":"TEME"},{"NORAD_CAT_ID":"44957","COUNTRY_CODE":"US","OBJECT_NAME":"STARLINK-1074","ARG_OF_PERICENTER":"69.1441","PERIOD":"95.592","TLE_LINE2":"2 44957  53.0525 207.6014 0001426  69.1441 290.9701 15.06402471138256","TIME_SYSTEM":"UTC","MEAN_MOTION_DDOT":"0.0000000000000","FILE":"3509293","RCS_SIZE":"LARGE","SEMIMAJOR_AXIS":"6925.341","EPOCH":"2022-07-07T11:08:44.842560","MEAN_ANOMALY":"290.9701","CENTER_NAME":"EARTH","DECAY_DATE":null,"OBJECT_TYPE":"PAYLOAD","INCLINATION":"53.0525","MEAN_MOTION":"15.06402471","MEAN_ELEMENT_THEORY":"SGP4","REF_FRAME":"TEME","SITE":"AFETR","EPHEMERIS_TYPE":"0","APOAPSIS":"548.194","GP_ID":"207598144","MEAN_MOTION_DOT":"0.00001008","OBJECT_ID":"2020-001AV","LAUNCH_DATE":"2020-01-07","REV_AT_EPOCH":"13825","ELEMENT_SET_NO":"999","ECCENTRICITY":"0.00014260","TLE_LINE1":"1 44957U 20001AV  22188.46440790  .00001008  00000-0  86543-4 0  9996","BSTAR":"0.00008654300000","RA_OF_ASC_NODE":"207.6014","CLASSIFICATION_TYPE":"U","PERIAPSIS":"546.218"},{"DECAY_DATE":null,"RCS_SIZE":"LARGE","CENTER_NAME":"EARTH","EPOCH":"2022-07-07T17:53:31.098912","MEAN_ANOMALY":"310.2522","SEMIMAJOR_AXIS":"6925.379","MEAN_MOTION":"15.06389975","INCLINATION":"53.0533","OBJECT_TYPE":"PAYLOAD","OBJECT_NAME":"STARLINK-1076","PERIOD":"95.593","ARG_OF_PERICENTER":"49.8637","NORAD_CAT_ID":"44959","COUNTRY_CODE":"US","TIME_SYSTEM":"UTC","FILE":"3509401","MEAN_MOTION_DDOT":"0.0000000000000","TLE_LINE2":"2 44959  53.0533 206.3465 0001939  49.8637 310.2522 15.06389975138298","TLE_LINE1":"1 44959U 20001AX  22188.74549883 -.00000945  00000-0 -44556-4 0  9991","ECCENTRICITY":"0.00019390","BSTAR":"-0.00004455600000","LAUNCH_DATE":"2020-01-07","REV_AT_EPOCH":"13829","ELEMENT_SET_NO":"999","CLASSIFICATION_TYPE":"U","PERIAPSIS":"545.901","RA_OF_ASC_NODE":"206.3465","REF_FRAME":"TEME","MEAN_ELEMENT_THEORY":"SGP4","GP_ID":"207606656","MEAN_MOTION_DOT":"-0.00000945","APOAPSIS":"548.587","OBJECT_ID":"2020-001AX","SITE":"AFETR","EPHEMERIS_TYPE":"0"},{"INCLINATION":"53.0528","MEAN_MOTION":"15.06385690","OBJECT_TYPE":"PAYLOAD","DECAY_DATE":null,"SEMIMAJOR_AXIS":"6925.392","EPOCH":"2022-07-07T19:39:42.149376","MEAN_ANOMALY":"286.1940","CENTER_NAME":"EARTH","RCS_SIZE":"LARGE","MEAN_MOTION_DDOT":"0.0000000000000","FILE":"3509402","TIME_SYSTEM":"UTC","TLE_LINE2":"2 44961  53.0528 206.0316 0001381  73.9201 286.1940 15.06385690138311","ARG_OF_PERICENTER":"73.9201","PERIOD":"95.593","OBJECT_NAME":"STARLINK-1080","COUNTRY_CODE":"US","NORAD_CAT_ID":"44961","PERIAPSIS":"546.301","CLASSIFICATION_TYPE":"U","RA_OF_ASC_NODE":"206.0316","BSTAR":"0.00009348200000","TLE_LINE1":"1 44961U 20001AZ  22188.81923784  .00001111  00000-0  93482-4 0  9994","ECCENTRICITY":"0.00013810","REV_AT_EPOCH":"13831","ELEMENT_SET_NO":"999","LAUNCH_DATE":"2020-01-07","OBJECT_ID":"2020-001AZ","APOAPSIS":"548.214","GP_ID":"207606359","MEAN_MOTION_DOT":"0.00001111","EPHEMERIS_TYPE":"0","SITE":"AFETR","REF_FRAME":"TEME","MEAN_ELEMENT_THEORY":"SGP4"},{"EPHEMERIS_TYPE":"0","SITE":"AFETR","OBJECT_ID":"2020-001BB","GP_ID":"207627349","MEAN_MOTION_DOT":"0.00016678","APOAPSIS":"519.641","MEAN_ELEMENT_THEORY":"SGP4","REF_FRAME":"TEME","RA_OF_ASC_NODE":"192.1796","PERIAPSIS":"516.512","CLASSIFICATION_TYPE":"U","REV_AT_EPOCH":"13919","ELEMENT_SET_NO":"999","LAUNCH_DATE":"2020-01-07","BSTAR":"0.00087295000000","ECCENTRICITY":"0.00022690","TLE_LINE1":"1 44963U 20001BB  22188.82349382  .00016678  00000-0  87295-3 0  9991","TLE_LINE2":"2 44963  52.9957 192.1796 0002269  36.2443 323.8702 15.15957097139198","FILE":"3509470","MEAN_MOTION_DDOT":"0.0000000000000","TIME_SYSTEM":"UTC","COUNTRY_CODE":"US","NORAD_CAT_ID":"44963","ARG_OF_PERICENTER":"36.2443","PERIOD":"94.989","OBJECT_NAME":"STARLINK-1085","OBJECT_TYPE":"PAYLOAD","MEAN_MOTION":"15.15957097","INCLINATION":"52.9957","MEAN_ANOMALY":"323.8702","EPOCH":"2022-07-07T19:45:49.866048","CENTER_NAME":"EARTH","SEMIMAJOR_AXIS":"6896.211","RCS_SIZE":"LARGE","DECAY_DATE":null},{"NORAD_CAT_ID":"44964","COUNTRY_CODE":"US","OBJECT_NAME":"STARLINK-1086","PERIOD":"95.593","ARG_OF_PERICENTER":"72.6657","TLE_LINE2":"2 44964  53.0535 206.1774 0001307  72.6657 287.4475 15.06390035138305","TIME_SYSTEM":"UTC","FILE":"3509470","MEAN_MOTION_DDOT":"0.0000000000000","RCS_SIZE":"LARGE","MEAN_ANOMALY":"287.4475","CENTER_NAME":"EARTH","EPOCH":"2022-07-07T18:46:35.796864","SEMIMAJOR_AXIS":"6925.379","DECAY_DATE":null,"OBJECT_TYPE":"PAYLOAD","MEAN_MOTION":"15.06390035","INCLINATION":"53.0535","MEAN_ELEMENT_THEORY":"SGP4","REF_FRAME":"TEME","SITE":"AFETR","EPHEMERIS_TYPE":"0","MEAN_MOTION_DOT":"-0.00000913","GP_ID":"207628096","APOAPSIS":"548.149","OBJECT_ID":"2020-001BC","LAUNCH_DATE":"2020-01-07","ELEMENT_SET_NO":"999","REV_AT_EPOCH":"13830","TLE_LINE1":"1 44964U 20001BC  22188.78235876 -.00000913  00000-0 -42416-4 0  9993","ECCENTRICITY":"0.00013070","BSTAR":"-0.00004241600000","RA_OF_ASC_NODE":"206.1774","CLASSIFICATION_TYPE":"U","PERIAPSIS":"546.339"},{"EPHEMERIS_TYPE":"0","SITE":"AFETR","OBJECT_ID":"2020-001BE","APOAPSIS":"548.132","GP_ID":"207627823","MEAN_MOTION_DOT":"0.00002290","MEAN_ELEMENT_THEORY":"SGP4","REF_FRAME":"TEME","RA_OF_ASC_NODE":"206.3970","PERIAPSIS":"546.257","CLASSIFICATION_TYPE":"U","REV_AT_EPOCH":"13829","ELEMENT_SET_NO":"999","LAUNCH_DATE":"2020-01-07","BSTAR":"0.00017255000000","ECCENTRICITY":"0.00013540","TLE_LINE1":"1 44966U 20001BE  22188.73811733  .00002290  00000-0  17255-3 0  9992","TLE_LINE2":"2 44966  53.0544 206.3970 0001354  70.2870 289.8265 15.06406206138299","MEAN_MOTION_DDOT":"0.0000000000000","FILE":"3509470","TIME_SYSTEM":"UTC","COUNTRY_CODE":"US","NORAD_CAT_ID":"44966","ARG_OF_PERICENTER":"70.2870","PERIOD":"95.592","OBJECT_NAME":"STARLINK-1088","OBJECT_TYPE":"PAYLOAD","INCLINATION":"53.0544","MEAN_MOTION":"15.06406206","SEMIMAJOR_AXIS":"6925.330","MEAN_ANOMALY":"289.8265","EPOCH":"2022-07-07T17:42:53.337312","CENTER_NAME":"EARTH","RCS_SIZE":"LARGE","DECAY_DATE":null},{"BSTAR":"0.00017372000000","ECCENTRICITY":"0.00016220","TLE_LINE1":"1 44967U 20001BF  22188.82659138  .00002307  00000-0  17372-3 0  9991","REV_AT_EPOCH":"13831","ELEMENT_SET_NO":"999","LAUNCH_DATE":"2020-01-07","PERIAPSIS":"546.086","CLASSIFICATION_TYPE":"U","RA_OF_ASC_NODE":"205.9883","REF_FRAME":"TEME","MEAN_ELEMENT_THEORY":"SGP4","OBJECT_ID":"2020-001BF","APOAPSIS":"548.333","GP_ID":"207626600","MEAN_MOTION_DOT":"0.00002307","EPHEMERIS_TYPE":"0","SITE":"AFETR","DECAY_DATE":null,"SEMIMAJOR_AXIS":"6925.345","CENTER_NAME":"EARTH","MEAN_ANOMALY":"296.1306","EPOCH":"2022-07-07T19:50:17.495232","RCS_SIZE":"LARGE","INCLINATION":"53.0519","MEAN_MOTION":"15.06401255","OBJECT_TYPE":"PAYLOAD","ARG_OF_PERICENTER":"63.9849","PERIOD":"95.592","OBJECT_NAME":"STARLINK-1089","COUNTRY_CODE":"US","NORAD_CAT_ID":"44967","MEAN_MOTION_DDOT":"0.0000000000000","FILE":"3509470","TIME_SYSTEM":"UTC","TLE_LINE2":"2 44967  53.0519 205.9883 0001622  63.9849 296.1306 15.06401255138312"}];
